[{"OBJECT_NAME":"GPS BIIF-4","OBJECT_ID":"2013-023A","EPOCH":"2026-04-23T08:08:51.629280","MEAN_MOTION":2.00563719,"ECCENTRICITY":0.01419293,"INCLINATION":54.5486,"RA_OF_ASC_NODE":271.2064,"ARG_OF_PERICENTER":50.6414,"MEAN_ANOMALY":310.5808,"EPHEMERIS_TYPE":0,"CLASSIFICATION_TYPE":"U","NORAD_CAT_ID":39166,"ELEMENT_SET_NO":999,"REV_AT_EPOCH":9478,"BSTAR":0,"MEAN_MOTION_DOT":-1.4e-7,"MEAN_MOTION_DDOT":0},{"OBJECT_NAME":"INSAT-3D","OBJECT_ID":"2013-038B","EPOCH":"2026-04-25T22:46:56.034624","MEAN_MOTION":1.00272261,"ECCENTRICITY":0.00014924,"INCLINATION":1.7929,"RA_OF_ASC_NODE":83.1635,"ARG_OF_PERICENTER":279.992,"MEAN_ANOMALY":322.0597,"EPHEMERIS_TYPE":0,"CLASSIFICATION_TYPE":"U","NORAD_CAT_ID":39216,"ELEMENT_SET_NO":999,"REV_AT_EPOCH":4655,"BSTAR":0,"MEAN_MOTION_DOT":-3.51e-6,"MEAN_MOTION_DDOT":0},{"OBJECT_NAME":"GPS BIIF-5","OBJECT_ID":"2014-008A","EPOCH":"2026-04-25T08:01:38.106912","MEAN_MOTION":2.00556368,"ECCENTRICITY":0.00837727,"INCLINATION":53.6444,"RA_OF_ASC_NODE":151.4757,"ARG_OF_PERICENTER":230.1062,"MEAN_ANOMALY":129.2171,"EPHEMERIS_TYPE":0,"CLASSIFICATION_TYPE":"U","NORAD_CAT_ID":39533,"ELEMENT_SET_NO":999,"REV_AT_EPOCH":8862,"BSTAR":0,"MEAN_MOTION_DOT":4.5e-7,"MEAN_MOTION_DDOT":0},{"OBJECT_NAME":"LUCH 5V","OBJECT_ID":"2014-023A","EPOCH":"2026-04-25T22:36:56.992320","MEAN_MOTION":1.00272066,"ECCENTRICITY":0.00021901,"INCLINATION":5.0069,"RA_OF_ASC_NODE":70.2551,"ARG_OF_PERICENTER":337.828,"MEAN_ANOMALY":239.8689,"EPHEMERIS_TYPE":0,"CLASSIFICATION_TYPE":"U","NORAD_CAT_ID":39727,"ELEMENT_SET_NO":999,"REV_AT_EPOCH":4383,"BSTAR":0,"MEAN_MOTION_DOT":-2.79e-6,"MEAN_MOTION_DDOT":0},{"OBJECT_NAME":"GPS BIIF-6","OBJECT_ID":"2014-026A","EPOCH":"2026-04-25T14:38:52.113696","MEAN_MOTION":2.00564849,"ECCENTRICITY":0.00389557,"INCLINATION":56.5223,"RA_OF_ASC_NODE":333.5646,"ARG_OF_PERICENTER":326.6637,"MEAN_ANOMALY":33.1281,"EPHEMERIS_TYPE":0,"CLASSIFICATION_TYPE":"U","NORAD_CAT_ID":39741,"ELEMENT_SET_NO":999,"REV_AT_EPOCH":8748,"BSTAR":0,"MEAN_MOTION_DOT":-7.7e-7,"MEAN_MOTION_DDOT":0},{"OBJECT_NAME":"GPS BIIF-7","OBJECT_ID":"2014-045A","EPOCH":"2026-04-25T04:51:09.050112","MEAN_MOTION":2.00554849,"ECCENTRICITY":0.00316455,"INCLINATION":55.3192,"RA_OF_ASC_NODE":90.5744,"ARG_OF_PERICENTER":119.1673,"MEAN_ANOMALY":241.1386,"EPHEMERIS_TYPE":0,"CLASSIFICATION_TYPE":"U","NORAD_CAT_ID":40105,"ELEMENT_SET_NO":999,"REV_AT_EPOCH":8501,"BSTAR":0,"MEAN_MOTION_DOT":3.5e-7,"MEAN_MOTION_DDOT":0},{"OBJECT_NAME":"GSAT0201 (GALILEO 5)","OBJECT_ID":"2014-050A","EPOCH":"2026-04-25T14:18:41.337792","MEAN_MOTION":1.85519949,"ECCENTRICITY":0.16662113,"INCLINATION":48.9339,"RA_OF_ASC_NODE":275.589,"ARG_OF_PERICENTER":177.3353,"MEAN_ANOMALY":183.6762,"EPHEMERIS_TYPE":0,"CLASSIFICATION_TYPE":"U","NORAD_CAT_ID":40128,"ELEMENT_SET_NO":999,"REV_AT_EPOCH":7734,"BSTAR":0,"MEAN_MOTION_DOT":-5.7e-7,"MEAN_MOTION_DDOT":0},{"OBJECT_NAME":"GSAT0202 (GALILEO 6)","OBJECT_ID":"2014-050B","EPOCH":"2026-04-22T14:50:07.504224","MEAN_MOTION":1.85520499,"ECCENTRICITY":0.16668513,"INCLINATION":48.9541,"RA_OF_ASC_NODE":274.7956,"ARG_OF_PERICENTER":177.952,"MEAN_ANOMALY":182.83,"EPHEMERIS_TYPE":0,"CLASSIFICATION_TYPE":"U","NORAD_CAT_ID":40129,"ELEMENT_SET_NO":999,"REV_AT_EPOCH":7945,"BSTAR":0,"MEAN_MOTION_DOT":-2.6e-7,"MEAN_MOTION_DDOT":0},{"OBJECT_NAME":"GPS BIIF-8","OBJECT_ID":"2014-068A","EPOCH":"2026-04-25T01:49:51.208896","MEAN_MOTION":2.00572899,"ECCENTRICITY":0.00652174,"INCLINATION":56.9533,"RA_OF_ASC_NODE":33.0012,"ARG_OF_PERICENTER":68.8236,"MEAN_ANOMALY":291.8757,"EPHEMERIS_TYPE":0,"CLASSIFICATION_TYPE":"U","NORAD_CAT_ID":40294,"ELEMENT_SET_NO":999,"REV_AT_EPOCH":8414,"BSTAR":0,"MEAN_MOTION_DOT":-9.2e-7,"MEAN_MOTION_DDOT":0},{"OBJECT_NAME":"GLONASS-K 2","OBJECT_ID":"2014-075A","EPOCH":"2026-04-23T09:32:13.829856","MEAN_MOTION":2.13101329,"ECCENTRICITY":0.0021796,"INCLINATION":63.614,"RA_OF_ASC_NODE":192.268,"ARG_OF_PERICENTER":209.7934,"MEAN_ANOMALY":150.1349,"EPHEMERIS_TYPE":0,"CLASSIFICATION_TYPE":"U","NORAD_CAT_ID":40315,"ELEMENT_SET_NO":999,"REV_AT_EPOCH":8868,"BSTAR":0,"MEAN_MOTION_DOT":-7.0e-8,"MEAN_MOTION_DDOT":0},{"OBJECT_NAME":"GPS BIIF-9","OBJECT_ID":"2015-013A","EPOCH":"2026-04-25T17:01:19.193088","MEAN_MOTION":2.00554458,"ECCENTRICITY":0.0108874,"INCLINATION":53.1744,"RA_OF_ASC_NODE":206.3479,"ARG_OF_PERICENTER":39.9788,"MEAN_ANOMALY":320.8435,"EPHEMERIS_TYPE":0,"CLASSIFICATION_TYPE":"U","NORAD_CAT_ID":40534,"ELEMENT_SET_NO":999,"REV_AT_EPOCH":8077,"BSTAR":0,"MEAN_MOTION_DOT":-3.9e-7,"MEAN_MOTION_DDOT":0},{"OBJECT_NAME":"GSAT0203 (GALILEO 7)","OBJECT_ID":"2015-017A","EPOCH":"2026-04-21T21:37:17.937984","MEAN_MOTION":1.70475713,"ECCENTRICITY":0.00025466,"INCLINATION":56.8042,"RA_OF_ASC_NODE":343.1309,"ARG_OF_PERICENTER":315.4442,"MEAN_ANOMALY":44.578,"EPHEMERIS_TYPE":0,"CLASSIFICATION_TYPE":"U","NORAD_CAT_ID":40544,"ELEMENT_SET_NO":999,"REV_AT_EPOCH":6824,"BSTAR":0,"MEAN_MOTION_DOT":-8.3e-7,"MEAN_MOTION_DDOT":0},{"OBJECT_NAME":"GSAT0204 (GALILEO 8)","OBJECT_ID":"2015-017B","EPOCH":"2026-04-25T02:08:52.340352","MEAN_MOTION":1.7047548,"ECCENTRICITY":0.00015528,"INCLINATION":56.8095,"RA_OF_ASC_NODE":343.0621,"ARG_OF_PERICENTER":296.0698,"MEAN_ANOMALY":63.9535,"EPHEMERIS_TYPE":0,"CLASSIFICATION_TYPE":"U","NORAD_CAT_ID":40545,"ELEMENT_SET_NO":999,"REV_AT_EPOCH":3134,"BSTAR":0,"MEAN_MOTION_DOT":-9.0e-7,"MEAN_MOTION_DDOT":0},{"OBJECT_NAME":"GPS BIIF-10","OBJECT_ID":"2015-033A","EPOCH":"2026-04-25T08:53:03.993504","MEAN_MOTION":2.0055894,"ECCENTRICITY":0.01150064,"INCLINATION":54.0255,"RA_OF_ASC_NODE":269.2625,"ARG_OF_PERICENTER":29.884,"MEAN_ANOMALY":330.7367,"EPHEMERIS_TYPE":0,"CLASSIFICATION_TYPE":"U","NORAD_CAT_ID":40730,"ELEMENT_SET_NO":999,"REV_AT_EPOCH":7893,"BSTAR":0,"MEAN_MOTION_DOT":-3.9e-7,"MEAN_MOTION_DDOT":0},{"OBJECT_NAME":"METEOSAT-11 (MSG-4)","OBJECT_ID":"2015-034A","EPOCH":"2026-04-25T22:12:44.312832","MEAN_MOTION":1.00263852,"ECCENTRICITY":0.00016038,"INCLINATION":3.071,"RA_OF_ASC_NODE":71.3804,"ARG_OF_PERICENTER":344.5095,"MEAN_ANOMALY":140.8296,"EPHEMERIS_TYPE":0,"CLASSIFICATION_TYPE":"U","NORAD_CAT_ID":40732,"ELEMENT_SET_NO":999,"REV_AT_EPOCH":669,"BSTAR":0,"MEAN_MOTION_DOT":5.2e-7,"MEAN_MOTION_DDOT":0},{"OBJECT_NAME":"GSAT0205 (GALILEO 9)","OBJECT_ID":"2015-045A","EPOCH":"2026-04-25T15:10:52.485888","MEAN_MOTION":1.67410754,"ECCENTRICITY":0.00051595,"INCLINATION":54.9613,"RA_OF_ASC_NODE":223.1764,"ARG_OF_PERICENTER":266.9978,"MEAN_ANOMALY":92.9342,"EPHEMERIS_TYPE":0,"CLASSIFICATION_TYPE":"U","NORAD_CAT_ID":40889,"ELEMENT_SET_NO":999,"REV_AT_EPOCH":6608,"BSTAR":0,"MEAN_MOTION_DOT":-3.8e-7,"MEAN_MOTION_DDOT":0},{"OBJECT_NAME":"GSAT0206 (GALILEO 10)","OBJECT_ID":"2015-045B","EPOCH":"2026-04-25T15:57:09.169344","MEAN_MOTION":1.70473961,"ECCENTRICITY":0.00021884,"INCLINATION":54.9612,"RA_OF_ASC_NODE":223.054,"ARG_OF_PERICENTER":38.1287,"MEAN_ANOMALY":321.8788,"EPHEMERIS_TYPE":0,"CLASSIFICATION_TYPE":"U","NORAD_CAT_ID":40890,"ELEMENT_SET_NO":999,"REV_AT_EPOCH":6614,"BSTAR":0,"MEAN_MOTION_DOT":-3.8e-7,"MEAN_MOTION_DDOT":0}]
